{
  "norad_id": 47230,
  "name": "COSMOS 2548",
  "history": [
    {
      "epoch": "2026-03-28T21:57:25.337376Z",
      "apogee_km": 1506.4899439623132,
      "perigee_km": 1481.9452019805203,
      "latitude_deg": -7.899145246937641e-05,
      "longitude_deg": -164.10356218741128,
      "height_km": 1484.924346324215,
      "semi_major_axis_km": 7872.354572971417,
      "eccentricity": 0.00155892,
      "inclination_deg": 82.5059,
      "raan_deg": 351.5805,
      "arg_perigee_deg": 12.4171,
      "mean_anomaly_deg": 347.7289,
      "mean_motion_rev_day": 12.42927486
    },
    {
      "epoch": "2026-03-29T03:45:09.444384Z",
      "apogee_km": 1506.4699370985873,
      "perigee_km": 1481.9633002836017,
      "latitude_deg": 6.334347657108599e-05,
      "longitude_deg": 108.57456106103943,
      "height_km": 1484.920244921317,
      "semi_major_axis_km": 7872.353618691094,
      "eccentricity": 0.0015565,
      "inclination_deg": 82.5059,
      "raan_deg": 351.4304,
      "arg_perigee_deg": 11.9293,
      "mean_anomaly_deg": 348.2153,
      "mean_motion_rev_day": 12.42927712
    }
  ]
}